{
  "type": "FeatureCollection",
  "features": [
    {
      "type": "Feature",
      "properties": {
        "norad_id": 40069,
        "name": "METEOR-M 2",
        "group": "weather",
        "lat": -27.119797639559128,
        "lon": -37.3100915097949,
        "alt_km": 827.1086338386212,
        "timestamp": "2025-12-06T11:28:10.672117+00:00",
        "meta_object_name": "METEOR-M 2",
        "meta_object_id": "2014-037A",
        "meta_epoch": "2025-12-05T23:46:20.381952",
        "meta_mean_motion": 14.21382459,
        "meta_eccentricity": 0.00047783,
        "meta_inclination": 98.4895,
        "meta_ra_of_asc_node": 317.8341,
        "meta_arg_of_pericenter": 231.8244,
        "meta_mean_anomaly": 128.2504,
        "meta_ephemeris_type": 0,
        "meta_classification_type": "U",
        "meta_norad_cat_id": 40069,
        "meta_element_set_no": 999,
        "meta_rev_at_epoch": 59187,
        "meta_bstar": 0.00014868296,
        "meta_mean_motion_dot": 2.83e-06,
        "meta_mean_motion_ddot": 0,
        "tle_line1": "1 40069U 14037A   25339.99051368  .00000283  00000+0  14868-3 0  9999",
        "tle_line2": "2 40069  98.4895 317.8341 0004778 231.8244 128.2504 14.21382459591872"
      },
      "geometry": {
        "type": "Point",
        "coordinates": [
          -37.3100915097949,
          -27.119797639559128
        ]
      }
    },
    {
      "type": "Feature",
      "properties": {
        "norad_id": 40267,
        "name": "HIMAWARI-8",
        "group": "weather",
        "lat": -0.018831673708330002,
        "lon": 28.236388559790715,
        "alt_km": 35787.71472781523,
        "timestamp": "2025-12-06T11:28:10.672129+00:00",
        "meta_object_name": "HIMAWARI-8",
        "meta_object_id": "2014-060A",
        "meta_epoch": "2025-12-05T21:12:51.831072",
        "meta_mean_motion": 1.00269784,
        "meta_eccentricity": 0.00013575,
        "meta_inclination": 0.0523,
        "meta_ra_of_asc_node": 138.7124,
        "meta_arg_of_pericenter": 149.6855,
        "meta_mean_anomaly": 245.4256,
        "meta_ephemeris_type": 0,
        "meta_classification_type": "U",
        "meta_norad_cat_id": 40267,
        "meta_element_set_no": 999,
        "meta_rev_at_epoch": 4082,
        "meta_bstar": 0,
        "meta_mean_motion_dot": -2.66e-06,
        "meta_mean_motion_ddot": 0,
        "tle_line1": "1 40267U 14060A   25339.88393323 -.00000266  00000+0  00000+0 0  9994",
        "tle_line2": "2 40267   0.0523 138.7124 0001357 149.6855 245.4256  1.00269784 40820"
      },
      "geometry": {
        "type": "Point",
        "coordinates": [
          28.236388559790715,
          -0.018831673708330002
        ]
      }
    },
    {
      "type": "Feature",
      "properties": {
        "norad_id": 40367,
        "name": "FENGYUN 2G",
        "group": "weather",
        "lat": -5.147146680835762,
        "lon": -12.728122051648947,
        "alt_km": 35785.297916990785,
        "timestamp": "2025-12-06T11:28:10.672141+00:00",
        "meta_object_name": "FENGYUN 2G",
        "meta_object_id": "2014-090A",
        "meta_epoch": "2025-12-05T19:18:26.245152",
        "meta_mean_motion": 1.002665,
        "meta_eccentricity": 0.00031526,
        "meta_inclination": 5.1497,
        "meta_ra_of_asc_node": 75.1781,
        "meta_arg_of_pericenter": 195.2891,
        "meta_mean_anomaly": 193.6781,
        "meta_ephemeris_type": 0,
        "meta_classification_type": "U",
        "meta_norad_cat_id": 40367,
        "meta_element_set_no": 999,
        "meta_rev_at_epoch": 4006,
        "meta_bstar": 0,
        "meta_mean_motion_dot": -2.95e-06,
        "meta_mean_motion_ddot": 0,
        "tle_line1": "1 40367U 14090A   25339.80447043 -.00000295  00000+0  00000+0 0  9991",
        "tle_line2": "2 40367   5.1497  75.1781 0003152 195.2891 193.6781  1.00266500 40068"
      },
      "geometry": {
        "type": "Point",
        "coordinates": [
          -12.728122051648947,
          -5.147146680835762
        ]
      }
    },
    {
      "type": "Feature",
      "properties": {
        "norad_id": 40732,
        "name": "METEOSAT-11 (MSG-4)",
        "group": "weather",
        "lat": -0.2602480523057585,
        "lon": -103.04085069596749,
        "alt_km": 35786.168349446816,
        "timestamp": "2025-12-06T11:28:10.672153+00:00",
        "meta_object_name": "METEOSAT-11 (MSG-4)",
        "meta_object_id": "2015-034A",
        "meta_epoch": "2025-12-05T22:18:07.310592",
        "meta_mean_motion": 1.00265352,
        "meta_eccentricity": 9.975e-05,
        "meta_inclination": 2.7184,
        "meta_ra_of_asc_node": 72.0214,
        "meta_arg_of_pericenter": 118.7705,
        "meta_mean_anomaly": 228.1275,
        "meta_ephemeris_type": 0,
        "meta_classification_type": "U",
        "meta_norad_cat_id": 40732,
        "meta_element_set_no": 999,
        "meta_rev_at_epoch": 527,
        "meta_bstar": 0,
        "meta_mean_motion_dot": 7e-07,
        "meta_mean_motion_ddot": 0,
        "tle_line1": "1 40732U 15034A   25339.92925128  .00000070  00000+0  00000+0 0  9994",
        "tle_line2": "2 40732   2.7184  72.0214 0000997 118.7705 228.1275  1.00265352  5275"
      },
      "geometry": {
        "type": "Point",
        "coordinates": [
          -103.04085069596749,
          -0.2602480523057585
        ]
      }
    },
    {
      "type": "Feature",
      "properties": {
        "norad_id": 41105,
        "name": "ELEKTRO-L 2",
        "group": "weather",
        "lat": 2.0850628691374933,
        "lon": -126.87815512519053,
        "alt_km": 35771.80162614249,
        "timestamp": "2025-12-06T11:28:10.672165+00:00",
        "meta_object_name": "ELEKTRO-L 2",
        "meta_object_id": "2015-074A",
        "meta_epoch": "2025-12-05T02:13:38.625024",
        "meta_mean_motion": 1.00271424,
        "meta_eccentricity": 0.00041676,
        "meta_inclination": 6.2057,
        "meta_ra_of_asc_node": 72.9172,
        "meta_arg_of_pericenter": 196.9759,
        "meta_mean_anomaly": 183.1549,
        "meta_ephemeris_type": 0,
        "meta_classification_type": "U",
        "meta_norad_cat_id": 41105,
        "meta_element_set_no": 999,
        "meta_rev_at_epoch": 3656,
        "meta_bstar": 0,
        "meta_mean_motion_dot": -1.09e-06,
        "meta_mean_motion_ddot": 0,
        "tle_line1": "1 41105U 15074A   25339.09280816 -.00000109  00000+0  00000+0 0  9993",
        "tle_line2": "2 41105   6.2057  72.9172 0004167 196.9759 183.1549  1.00271424 36567"
      },
      "geometry": {
        "type": "Point",
        "coordinates": [
          -126.87815512519053,
          2.0850628691374933
        ]
      }
    },
    {
      "type": "Feature",
      "properties": {
        "norad_id": 41752,
        "name": "INSAT-3DR",
        "group": "weather",
        "lat": -0.06423007920539558,
        "lon": -38.30163489334998,
        "alt_km": 35748.90201195686,
        "timestamp": "2025-12-06T11:28:10.672177+00:00",
        "meta_object_name": "INSAT-3DR",
        "meta_object_id": "2016-054A",
        "meta_epoch": "2025-12-05T21:18:38.615616",
        "meta_mean_motion": 1.00269731,
        "meta_eccentricity": 0.00145681,
        "meta_inclination": 0.0749,
        "meta_ra_of_asc_node": 87.8826,
        "meta_arg_of_pericenter": 181.607,
        "meta_mean_anomaly": 199.1272,
        "meta_ephemeris_type": 0,
        "meta_classification_type": "U",
        "meta_norad_cat_id": 41752,
        "meta_element_set_no": 999,
        "meta_rev_at_epoch": 3388,
        "meta_bstar": 0,
        "meta_mean_motion_dot": -6.8e-07,
        "meta_mean_motion_ddot": 0,
        "tle_line1": "1 41752U 16054A   25339.88794694 -.00000068  00000+0  00000+0 0  9995",
        "tle_line2": "2 41752   0.0749  87.8826 0014568 181.6070 199.1272  1.00269731 33889"
      },
      "geometry": {
        "type": "Point",
        "coordinates": [
          -38.30163489334998,
          -0.06423007920539558
        ]
      }
    },
    {
      "type": "Feature",
      "properties": {
        "norad_id": 41836,
        "name": "HIMAWARI-9",
        "group": "weather",
        "lat": 0.006601358281711296,
        "lon": 28.330056750907925,
        "alt_km": 35785.78676004616,
        "timestamp": "2025-12-06T11:28:10.672190+00:00",
        "meta_object_name": "HIMAWARI-9",
        "meta_object_id": "2016-064A",
        "meta_epoch": "2025-12-05T16:04:44.799744",
        "meta_mean_motion": 1.00271955,
        "meta_eccentricity": 0.00019742,
        "meta_inclination": 0.0132,
        "meta_ra_of_asc_node": 58.9298,
        "meta_arg_of_pericenter": 241.9648,
        "meta_mean_anomaly": 155.7705,
        "meta_ephemeris_type": 0,
        "meta_classification_type": "U",
        "meta_norad_cat_id": 41836,
        "meta_element_set_no": 999,
        "meta_rev_at_epoch": 3327,
        "meta_bstar": 0,
        "meta_mean_motion_dot": -2.64e-06,
        "meta_mean_motion_ddot": 0,
        "tle_line1": "1 41836U 16064A   25339.66996296 -.00000264  00000+0  00000+0 0  9995",
        "tle_line2": "2 41836   0.0132  58.9298 0001974 241.9648 155.7705  1.00271955 33271"
      },
      "geometry": {
        "type": "Point",
        "coordinates": [
          28.330056750907925,
          0.006601358281711296
        ]
      }
    }
  ]
}